*******************************************************************************
JPL/HORIZONS                198 Ampella (A879 LA)          2023-Sep-04 11:04:57
Rec #:     198 (+COV) Soln.date: 2023-Aug-22_14:29:07   # obs: 5083 (1898-2023)
 
IAU76/J2000 helio. ecliptic osc. elements (au, days, deg., period=Julian yrs):
 
  EPOCH=  2457061.5 ! 2015-Feb-08.00 (TDB)         Residual RMS= .2863
   EC= .2282595720612246   QR= 1.897441235195636   TP= 2457087.604921205
   OM= 268.4636239329777   W=  88.52043849295801   IN= 9.313393642164947
   A= 2.45865211475764     MA= 353.326082462607    ADIST= 3.019862994319643
   PER= 3.85526            N= .255657448           ANGMOM= .026260965
   DAN= 2.3169             DDN= 2.34437            L= 356.9643071
   B= 9.310260899999999    MOID= .92135799         TP= 2015-Mar-06.1049212050
 
Asteroid physical parameters (km, seconds, rotational period in hours):
   GM= n.a.                RAD= 27.1615            ROTPER= 10.379
   H= 8.59                 G= .150                 B-V= .885
                           ALBEDO= .268            STYP= S

ASTEROID comments: 
1: soln ref.= JPL#93, OCC=0
2: source=ORB
*******************************************************************************


*******************************************************************************
Ephemeris / API_USER Mon Sep  4 11:04:57 2023 Pasadena, USA      / Horizons
*******************************************************************************
Target body name: 198 Ampella (A879 LA)           {source: JPL#93}
Center body name: Solar System Barycenter (0)     {source: DE441}
Center-site name: BODY CENTER
*******************************************************************************
Start time      : A.D. 2023-Aug-12 00:00:00.0000 TDB
Stop  time      : A.D. 2023-Aug-13 00:00:00.0000 TDB
Step-size       : 2880 minutes
*******************************************************************************
Center geodetic : 0.0, 0.0, 0.0                   {E-lon(deg),Lat(deg),Alt(km)}
Center cylindric: 0.0, 0.0, 0.0                   {E-lon(deg),Dxy(km),Dz(km)}
Center radii    : (undefined)
Small perturbers: Yes                             {source: SB441-N16}
Output units    : KM-S
Calendar mode   : Mixed Julian/Gregorian
Output type     : GEOMETRIC cartesian states
Output format   : 2 (position and velocity)
Reference frame : Ecliptic of J2000.0
*******************************************************************************
Initial IAU76/J2000 heliocentric ecliptic osculating elements (au, days, deg.):
  EPOCH=  2457061.5 ! 2015-Feb-08.00 (TDB)         Residual RMS= .2863         
   EC= .2282595720612246   QR= 1.897441235195636   TP= 2457087.604921205       
   OM= 268.4636239329777   W=  88.52043849295801   IN= 9.313393642164947       
  Equivalent ICRF heliocentric cartesian coordinates (au, au/d):
   X= 1.823540625362668E+00  Y=-5.387605624169340E-01  Z= 9.444116429078164E-02
  VX= 2.809849238110140E-03 VY= 1.223325949624708E-02 VZ= 5.741101904525988E-03
Asteroid physical parameters (km, seconds, rotational period in hours):        
   GM= n.a.                RAD= 27.1615            ROTPER= 10.379              
   H= 8.59                 G= .150                 B-V= .885                   
                           ALBEDO= .268            STYP= S                     
*******************************************************************************
JDTDB
   X     Y     Z
   VX    VY    VZ
*******************************************************************************
$$SOE
2460168.500000000 = A.D. 2023-Aug-12 00:00:00.0000 TDB 
 X =-3.531085958635402E+06 Y = 3.527028611362773E+08 Z =-2.149029563752621E+06
 VX=-1.903793001110481E+01 VY= 4.283838146200555E+00 VZ=-3.147074795046890E+00
$$EOE
*******************************************************************************
 
TIME

  Barycentric Dynamical Time ("TDB" or T_eph) output was requested. This
continuous coordinate time is equivalent to the relativistic proper time
of a clock at rest in a reference frame co-moving with the solar system
barycenter but outside the system's gravity well. It is the independent
variable in the solar system relativistic equations of motion.

  TDB runs at a uniform rate of one SI second per second and is independent
of irregularities in Earth's rotation.
 
CALENDAR SYSTEM

  Mixed calendar mode was active such that calendar dates after AD 1582-Oct-15
(if any) are in the modern Gregorian system. Dates prior to 1582-Oct-5 (if any)
are in the Julian calendar system, which is automatically extended for dates
prior to its adoption on 45-Jan-1 BC.  The Julian calendar is useful for
matching historical dates. The Gregorian calendar more accurately corresponds
to the Earth's orbital motion and seasons. A "Gregorian-only" calendar mode is
available if such physical events are the primary interest.

REFERENCE FRAME AND COORDINATES

  Ecliptic at the standard reference epoch

    Reference epoch: J2000.0
    X-Y plane: adopted Earth orbital plane at the reference epoch
               Note: IAU76 obliquity of 84381.448 arcseconds wrt ICRF X-Y plane
    X-axis   : ICRF
    Z-axis   : perpendicular to the X-Y plane in the directional (+ or -) sense
               of Earth's north pole at the reference epoch.

  Symbol meaning:

    JDTDB    Julian Day Number, Barycentric Dynamical Time
      X      X-component of position vector (km)
      Y      Y-component of position vector (km)
      Z      Z-component of position vector (km)
      VX     X-component of velocity vector (km/sec)                           
      VY     Y-component of velocity vector (km/sec)                           
      VZ     Z-component of velocity vector (km/sec)                           

ABERRATIONS AND CORRECTIONS

 Geometric state vectors have NO corrections or aberrations applied.

Computations by ...

    Solar System Dynamics Group, Horizons On-Line Ephemeris System
    4800 Oak Grove Drive, Jet Propulsion Laboratory
    Pasadena, CA  91109   USA

    General site: https://ssd.jpl.nasa.gov/
    Mailing list: https://ssd.jpl.nasa.gov/email_list.html
    System news : https://ssd.jpl.nasa.gov/horizons/news.html
    User Guide  : https://ssd.jpl.nasa.gov/horizons/manual.html
    Connect     : browser        https://ssd.jpl.nasa.gov/horizons/app.html#/x
                  API            https://ssd-api.jpl.nasa.gov/doc/horizons.html
                  command-line   telnet ssd.jpl.nasa.gov 6775
                  e-mail/batch   https://ssd.jpl.nasa.gov/ftp/ssd/hrzn_batch.txt
                  scripts        https://ssd.jpl.nasa.gov/ftp/ssd/SCRIPTS
    Author      : Jon.D.Giorgini@jpl.nasa.gov
*******************************************************************************
